[{"OBJECT_NAME":"STARLINK-34213","OBJECT_ID":"2025-112C","EPOCH":"2026-03-09T16:15:11.019168","MEAN_MOTION":15.05661105,"ECCENTRICITY":1.83e-5,"INCLINATION":97.6033,"RA_OF_ASC_NODE":121.4586,"ARG_OF_PERICENTER":166.7794,"MEAN_ANOMALY":193.3438,"EPHEMERIS_TYPE":0,"CLASSIFICATION_TYPE":"U","NORAD_CAT_ID":64148,"ELEMENT_SET_NO":999,"REV_AT_EPOCH":4330,"BSTAR":0.00081526649,"MEAN_MOTION_DOT":0.00011726,"MEAN_MOTION_DDOT":0},{"OBJECT_NAME":"MINOTAUR 4 R\/B","OBJECT_ID":"2020-046E","EPOCH":"2026-03-09T23:21:28.488960","MEAN_MOTION":15.06543892,"ECCENTRICITY":0.00095926,"INCLINATION":53.9792,"RA_OF_ASC_NODE":306.0413,"ARG_OF_PERICENTER":86.078,"MEAN_ANOMALY":274.1318,"EPHEMERIS_TYPE":0,"CLASSIFICATION_TYPE":"U","NORAD_CAT_ID":45877,"ELEMENT_SET_NO":999,"REV_AT_EPOCH":23396,"BSTAR":0.00016618262,"MEAN_MOTION_DOT":2.204e-5,"MEAN_MOTION_DDOT":0}]
